OBJECT_NAME,OBJECT_ID,EPOCH,MEAN_MOTION,ECCENTRICITY,INCLINATION,RA_OF_ASC_NODE,ARG_OF_PERICENTER,MEAN_ANOMALY,EPHEMERIS_TYPE,CLASSIFICATION_TYPE,NORAD_CAT_ID,ELEMENT_SET_NO,REV_AT_EPOCH,BSTAR,MEAN_MOTION_DOT,MEAN_MOTION_DDOT
STARLINK-37922,2026-157AE,2026-07-19T06:00:02.000160,15.81290556,.0001096,53.1588,275.0656,78.8642,282.6785,0,U,69971,999,281,-.34366766E-2,-.643155E-2,0
CHUANG XIN 26 (CX-26),2026-158A,2026-07-19T02:58:46.660224,14.25124015,.00049271,49.9834,263.8373,312.9322,47.1177,0,U,69972,999,126,.45694909E-4,-.52E-6,0
CZ-10B DEB,2026-158B,2026-07-19T04:41:56.053824,14.24889741,.00058526,49.9840,263.5500,323.4723,36.5791,0,U,69973,999,127,.11298268E-3,.106E-5,0
CZ-10B R/B,2026-158C,2026-07-13T13:30:02.623104,14.64293949,.01979448,49.9631,286.3519,194.8878,164.6170,0,U,69974,999,48,.55130296E-4,.143E-5,0
STARLINK-38024,2026-159A,2026-07-19T06:00:02.000160,15.83183500,.00012954,97.2853,39.1517,83.6943,271.6971,0,U,69975,999,250,-.8876695E-2,-.1654419E-1,0
STARLINK-37993,2026-159B,2026-07-19T06:00:02.000160,15.83545424,.00014829,97.2851,39.1522,86.5849,272.2994,0,U,69976,999,250,-.93419419E-2,-.1755127E-1,0
STARLINK-37995,2026-159C,2026-07-19T06:00:02.000160,15.83828688,.00014381,97.2853,39.1539,77.5315,284.8214,0,U,69977,999,250,-.91437905E-2,-.174318E-1,0
STARLINK-38057,2026-159D,2026-07-19T06:00:02.000160,15.84083505,.0001416,97.2855,39.1548,85.6739,280.1500,0,U,69978,999,250,-.89484085E-2,-.1729102E-1,0
STARLINK-38063,2026-159E,2026-07-19T06:00:02.000160,15.84325922,.00016141,97.2856,39.1567,78.3019,290.9658,0,U,69979,999,250,-.87811434E-2,-.1718534E-1,0
STARLINK-38093,2026-159F,2026-07-19T06:00:02.000160,15.84558264,.00014458,97.2856,39.1580,74.1853,298.4967,0,U,69980,999,250,-.86102633E-2,-.1705825E-1,0
STARLINK-38050,2026-159G,2026-07-19T06:00:02.000160,15.84807769,.00015885,97.2855,39.1594,76.4307,299.5478,0,U,69981,999,250,-.84838747E-2,-.1701893E-1,0
STARLINK-38065,2026-159H,2026-07-19T06:00:02.000160,15.85030355,.00015456,97.2859,39.1611,85.6349,293.6478,0,U,69982,999,250,-.82981767E-2,-.1685159E-1,0
STARLINK-38077,2026-159J,2026-07-19T06:00:02.000160,15.85255141,.00013756,97.2860,39.1623,77.2322,305.2951,0,U,69983,999,250,-.8159705E-2,-.1676329E-1,0
STARLINK-38068,2026-159K,2026-07-19T06:00:02.000160,15.85494572,.00015471,97.2859,39.1635,72.3842,313.2296,0,U,69984,999,250,-.80010224E-2,-.1664847E-1,0
STARLINK-38089,2026-159L,2026-07-19T06:00:02.000160,15.85704480,.00014582,97.2859,39.1650,79.2063,309.6127,0,U,69985,999,250,-.78734131E-2,-.1656285E-1,0
STARLINK-38073,2026-159M,2026-07-19T06:00:02.000160,15.85921680,.0001444,97.2860,39.1661,75.4711,316.4334,0,U,69986,999,250,-.77479561E-2,-.164839E-1,0
STARLINK-38099,2026-159N,2026-07-19T06:00:02.000160,15.86142962,.00014983,97.2860,39.1673,73.5990,321.2979,0,U,69987,999,250,-.76098613E-2,-.1638156E-1,0
STARLINK-38064,2026-159P,2026-07-19T06:00:02.000160,15.86549251,.00014451,97.2861,39.1698,73.4045,327.5100,0,U,69988,999,250,-.73509053E-2,-.1617181E-1,0
STARLINK-38080,2026-159Q,2026-07-19T06:00:02.000160,15.86348327,.00014707,97.2860,39.1687,72.9581,324.9826,0,U,69989,999,250,-.74981267E-2,-.1631368E-1,0
STARLINK-38070,2026-159R,2026-07-19T06:00:02.000160,15.86745694,.00014675,97.2862,39.1710,73.6472,330.2645,0,U,69990,999,250,-.72572087E-2,-.1612716E-1,0
STARLINK-38042,2026-159S,2026-07-19T06:00:02.000160,15.86956640,.00015257,97.2862,39.1722,72.3743,334.3100,0,U,69991,999,250,-.71200639E-2,-.1600535E-1,0
STARLINK-38071,2026-159T,2026-07-19T06:00:02.000160,15.87154287,.00015395,97.2864,39.1736,72.0482,337.4253,0,U,69992,999,250,-.69743711E-2,-.158528E-1,0
STARLINK-38082,2026-159U,2026-07-19T06:00:02.000160,15.87355049,.00014497,97.2866,39.1747,74.1404,338.1064,0,U,69993,999,250,-.68962464E-2,-.1583342E-1,0
STARLINK-38090,2026-159V,2026-07-19T06:00:02.000160,15.87544365,.00014621,97.2864,39.1760,77.3158,337.7121,0,U,69994,999,250,-.6787579E-2,-.1574327E-1,0
STARLINK-38084,2026-159W,2026-07-19T06:00:02.000160,15.87718523,.00015113,97.2868,39.1771,71.0102,346.8783,0,U,69995,999,250,-.66899518E-2,-.1566296E-1,0
STARLINK-38085,2026-159X,2026-07-19T06:00:02.000160,15.87908352,.00015351,97.2868,39.1784,72.0133,348.5021,0,U,69996,999,250,-.65774584E-2,-.1523569E-1,0
STARLINK-38091,2026-159Y,2026-07-19T06:00:02.000160,15.88083868,.00015508,97.2869,39.1795,71.8941,351.3997,0,U,69997,999,250,-.64931288E-2,-.1518189E-1,0
STARLINK-38086,2026-159Z,2026-07-19T06:00:02.000160,15.88261428,.0001527,97.2870,39.1807,73.2311,352.7295,0,U,69998,999,250,-.64107595E-2,-.1513117E-1,0
