STARLINK-37922          
1 69971U 26157AE  26200.25002315 -.00643155  00000+0 -34367-2 0  9991
2 69971  53.1588 275.0656 0001096  78.8642 282.6785 15.81290556  2817
CHUANG XIN 26 (CX-26)   
1 69972U 26158A   26200.12415116 -.00000052  00000+0  45695-4 0  9996
2 69972  49.9834 263.8373 0004927 312.9322  47.1177 14.25124015  1269
CZ-10B DEB              
1 69973U 26158B   26200.19578766  .00000106  00000+0  11298-3 0  9995
2 69973  49.9840 263.5500 0005852 323.4723  36.5791 14.24889741  1274
CZ-10B R/B              
1 69974U 26158C   26194.56253036  .00000143  00000+0  55130-4 0  9994
2 69974  49.9631 286.3519 0197944 194.8878 164.6170 14.64293949   480
STARLINK-38024          
1 69975U 26159A   26200.25002315 -.01654419  00000+0 -88767-2 0  9996
2 69975  97.2853  39.1517 0001295  83.6943 271.6971 15.83183500  2502
STARLINK-37993          
1 69976U 26159B   26200.25002315 -.01755127  00000+0 -93419-2 0  9995
2 69976  97.2851  39.1522 0001482  86.5849 272.2994 15.83545424  2501
STARLINK-37995          
1 69977U 26159C   26200.25002315 -.01743180  00000+0 -91438-2 0  9991
2 69977  97.2853  39.1539 0001438  77.5315 284.8214 15.83828688  2501
STARLINK-38057          
1 69978U 26159D   26200.25002315 -.01729102  00000+0 -89484-2 0  9998
2 69978  97.2855  39.1548 0001416  85.6739 280.1500 15.84083505  2509
STARLINK-38063          
1 69979U 26159E   26200.25002315 -.01718534  00000+0 -87811-2 0  9998
2 69979  97.2856  39.1567 0001614  78.3019 290.9658 15.84325922  2507
STARLINK-38093          
1 69980U 26159F   26200.25002315 -.01705825  00000+0 -86103-2 0  9992
2 69980  97.2856  39.1580 0001445  74.1853 298.4967 15.84558264  2509
STARLINK-38050          
1 69981U 26159G   26200.25002315 -.01701893  00000+0 -84839-2 0  9998
2 69981  97.2855  39.1594 0001588  76.4307 299.5478 15.84807769  2507
STARLINK-38065          
1 69982U 26159H   26200.25002315 -.01685159  00000+0 -82982-2 0  9992
2 69982  97.2859  39.1611 0001545  85.6349 293.6478 15.85030355  2508
STARLINK-38077          
1 69983U 26159J   26200.25002315 -.01676329  00000+0 -81597-2 0  9993
2 69983  97.2860  39.1623 0001375  77.2322 305.2951 15.85255141  2501
STARLINK-38068          
1 69984U 26159K   26200.25002315 -.01664847  00000+0 -80010-2 0  9995
2 69984  97.2859  39.1635 0001547  72.3842 313.2296 15.85494572  2501
STARLINK-38089          
1 69985U 26159L   26200.25002315 -.01656285  00000+0 -78734-2 0  9993
2 69985  97.2859  39.1650 0001458  79.2063 309.6127 15.85704480  2505
STARLINK-38073          
1 69986U 26159M   26200.25002315 -.01648390  00000+0 -77480-2 0  9999
2 69986  97.2860  39.1661 0001444  75.4711 316.4334 15.85921680  2502
STARLINK-38099          
1 69987U 26159N   26200.25002315 -.01638156  00000+0 -76099-2 0  9994
2 69987  97.2860  39.1673 0001498  73.5990 321.2979 15.86142962  2501
STARLINK-38064          
1 69988U 26159P   26200.25002315 -.01617181  00000+0 -73509-2 0  9993
2 69988  97.2861  39.1698 0001445  73.4045 327.5100 15.86549251  2509
STARLINK-38080          
1 69989U 26159Q   26200.25002315 -.01631368  00000+0 -74981-2 0  9992
2 69989  97.2860  39.1687 0001470  72.9581 324.9826 15.86348327  2501
STARLINK-38070          
1 69990U 26159R   26200.25002315 -.01612716  00000+0 -72572-2 0  9994
2 69990  97.2862  39.1710 0001467  73.6472 330.2645 15.86745694  2502
STARLINK-38042          
1 69991U 26159S   26200.25002315 -.01600535  00000+0 -71201-2 0  9999
2 69991  97.2862  39.1722 0001525  72.3743 334.3100 15.86956640  2504
STARLINK-38071          
1 69992U 26159T   26200.25002315 -.01585280  00000+0 -69744-2 0  9998
2 69992  97.2864  39.1736 0001539  72.0482 337.4253 15.87154287  2505
STARLINK-38082          
1 69993U 26159U   26200.25002315 -.01583342  00000+0 -68962-2 0  9997
2 69993  97.2866  39.1747 0001449  74.1404 338.1064 15.87355049  2504
STARLINK-38090          
1 69994U 26159V   26200.25002315 -.01574327  00000+0 -67876-2 0  9994
2 69994  97.2864  39.1760 0001462  77.3158 337.7121 15.87544365  2504
STARLINK-38084          
1 69995U 26159W   26200.25002315 -.01566296  00000+0 -66900-2 0  9998
2 69995  97.2868  39.1771 0001511  71.0102 346.8783 15.87718523  2500
STARLINK-38085          
1 69996U 26159X   26200.25002315 -.01523569  00000+0 -65775-2 0  9994
2 69996  97.2868  39.1784 0001535  72.0133 348.5021 15.87908352  2501
STARLINK-38091          
1 69997U 26159Y   26200.25002315 -.01518189  00000+0 -64931-2 0  9990
2 69997  97.2869  39.1795 0001550  71.8941 351.3997 15.88083868  2507
STARLINK-38086          
1 69998U 26159Z   26200.25002315 -.01513117  00000+0 -64108-2 0  9993
2 69998  97.2870  39.1807 0001527  73.2311 352.7295 15.88261428  2501
